CCSDS_OMM_VERS = 2.0
CREATION_DATE  = 
ORIGINATOR     = 

OBJECT_NAME    = 1998-067XU
OBJECT_ID      = 1998-067XU
CENTER_NAME    = EARTH
REF_FRAME      = TEME
TIME_SYSTEM    = UTC
MEAN_ELEMENT_THEORY = SGP/SGP4

EPOCH          = 2026-01-24T17:33:16.339104
MEAN_MOTION    = 15.58285977
ECCENTRICITY   = .00031594
INCLINATION    = 51.6284
RA_OF_ASC_NODE = 287.8746
ARG_OF_PERICENTER = 113.2223
MEAN_ANOMALY   = 246.9102

EPHEMERIS_TYPE = 0
CLASSIFICATION_TYPE = U
NORAD_CAT_ID   = 66908
ELEMENT_SET_NO = 999
REV_AT_EPOCH   = 830
BSTAR          = .13800288E-2
MEAN_MOTION_DOT = .107534E-2
MEAN_MOTION_DDOT = 0

CCSDS_OMM_VERS = 2.0
CREATION_DATE  = 
ORIGINATOR     = 

OBJECT_NAME    = SILVERSAT
OBJECT_ID      = 1998-067XV
CENTER_NAME    = EARTH
REF_FRAME      = TEME
TIME_SYSTEM    = UTC
MEAN_ELEMENT_THEORY = SGP/SGP4

EPOCH          = 2026-01-25T10:08:14.633376
MEAN_MOTION    = 15.59477961
ECCENTRICITY   = .00034691
INCLINATION    = 51.6290
RA_OF_ASC_NODE = 284.2393
ARG_OF_PERICENTER = 132.4059
MEAN_ANOMALY   = 227.7228

EPHEMERIS_TYPE = 0
CLASSIFICATION_TYPE = U
NORAD_CAT_ID   = 66909
ELEMENT_SET_NO = 999
REV_AT_EPOCH   = 841
BSTAR          = .16735501E-2
MEAN_MOTION_DOT = .137063E-2
MEAN_MOTION_DDOT = 0

CCSDS_OMM_VERS = 2.0
CREATION_DATE  = 
ORIGINATOR     = 

OBJECT_NAME    = 1998-067XW
OBJECT_ID      = 1998-067XW
CENTER_NAME    = EARTH
REF_FRAME      = TEME
TIME_SYSTEM    = UTC
MEAN_ELEMENT_THEORY = SGP/SGP4

EPOCH          = 2026-01-25T10:15:53.772480
MEAN_MOTION    = 15.58694515
ECCENTRICITY   = .00018494
INCLINATION    = 51.6283
RA_OF_ASC_NODE = 284.2718
ARG_OF_PERICENTER = 111.5398
MEAN_ANOMALY   = 248.5792

EPHEMERIS_TYPE = 0
CLASSIFICATION_TYPE = U
NORAD_CAT_ID   = 66910
ELEMENT_SET_NO = 999
REV_AT_EPOCH   = 841
BSTAR          = .14394899E-2
MEAN_MOTION_DOT = .114019E-2
MEAN_MOTION_DDOT = 0

CCSDS_OMM_VERS = 2.0
CREATION_DATE  = 
ORIGINATOR     = 

OBJECT_NAME    = 1998-067XX
OBJECT_ID      = 1998-067XX
CENTER_NAME    = EARTH
REF_FRAME      = TEME
TIME_SYSTEM    = UTC
MEAN_ELEMENT_THEORY = SGP/SGP4

EPOCH          = 2026-01-24T18:17:27.873024
MEAN_MOTION    = 15.60326118
ECCENTRICITY   = .00023564
INCLINATION    = 51.6271
RA_OF_ASC_NODE = 287.3275
ARG_OF_PERICENTER = 137.8769
MEAN_ANOMALY   = 222.2406

EPHEMERIS_TYPE = 0
CLASSIFICATION_TYPE = U
NORAD_CAT_ID   = 66911
ELEMENT_SET_NO = 999
REV_AT_EPOCH   = 830
BSTAR          = .15417133E-2
MEAN_MOTION_DOT = .130264E-2
MEAN_MOTION_DDOT = 0

CCSDS_OMM_VERS = 2.0
CREATION_DATE  = 
ORIGINATOR     = 

OBJECT_NAME    = 1998-067XY
OBJECT_ID      = 1998-067XY
CENTER_NAME    = EARTH
REF_FRAME      = TEME
TIME_SYSTEM    = UTC
MEAN_ELEMENT_THEORY = SGP/SGP4

EPOCH          = 2026-01-24T18:16:06.913632
MEAN_MOTION    = 15.56408816
ECCENTRICITY   = .00028798
INCLINATION    = 51.6291
RA_OF_ASC_NODE = 288.0745
ARG_OF_PERICENTER = 92.7401
MEAN_ANOMALY   = 267.3920

EPHEMERIS_TYPE = 0
CLASSIFICATION_TYPE = U
NORAD_CAT_ID   = 66912
ELEMENT_SET_NO = 999
REV_AT_EPOCH   = 829
BSTAR          = .10616044E-2
MEAN_MOTION_DOT = .76682E-3
MEAN_MOTION_DDOT = 0

